{
    "links": {
        "self": "http://www.neowsapp.com/rest/v1/neo/3636251?api_key=iIulBulltgU6a56xZRHN4H3l9WmuAYTsLGpBGhQ2"
    },
    "id": "3636251",
    "neo_reference_id": "3636251",
    "name": "(2013 HH19)",
    "designation": "2013 HH19",
    "nasa_jpl_url": "http://ssd.jpl.nasa.gov/sbdb.cgi?sstr=3636251",
    "absolute_magnitude_h": 24.8,
    "estimated_diameter": {
        "kilometers": {
            "estimated_diameter_min": 0.0291443905,
            "estimated_diameter_max": 0.0651688382
        },
        "meters": {
            "estimated_diameter_min": 29.1443904535,
            "estimated_diameter_max": 65.1688382168
        },
        "miles": {
            "estimated_diameter_min": 0.018109479,
            "estimated_diameter_max": 0.0404940262
        },
        "feet": {
            "estimated_diameter_min": 95.6180819754,
            "estimated_diameter_max": 213.8085311752
        }
    },
    "is_potentially_hazardous_asteroid": false,
    "close_approach_data": [
        {
            "close_approach_date": "2011-07-17",
            "close_approach_date_full": "2011-Jul-17 05:01",
            "epoch_date_close_approach": 1310878860000,
            "relative_velocity": {
                "kilometers_per_second": "7.0918072853",
                "kilometers_per_hour": "25530.5062271137",
                "miles_per_hour": "15863.6637165085"
            },
            "miss_distance": {
                "astronomical": "1.7756724339",
                "lunar": "690.7365767871",
                "kilometers": "265636813.929155793",
                "miles": "165059062.2851562234"
            },
            "orbiting_body": "Juptr"
        },
        {
            "close_approach_date": "2013-04-30",
            "close_approach_date_full": "2013-Apr-30 09:56",
            "epoch_date_close_approach": 1367315760000,
            "relative_velocity": {
                "kilometers_per_second": "12.6781138398",
                "kilometers_per_hour": "45641.2098234179",
                "miles_per_hour": "28359.6728483343"
            },
            "miss_distance": {
                "astronomical": "0.0437658773",
                "lunar": "17.0249262697",
                "kilometers": "6547282.022761351",
                "miles": "4068292.3997186038"
            },
            "orbiting_body": "Earth"
        }
    ],
    "orbital_data": {
        "orbit_id": "8",
        "orbit_determination_date": "2017-04-06 08:46:00",
        "first_observation_date": "2013-04-30",
        "last_observation_date": "2013-05-05",
        "data_arc_in_days": 5,
        "observations_used": 38,
        "orbit_uncertainty": "7",
        "minimum_orbit_intersection": ".0431354",
        "jupiter_tisserand_invariant": "3.197",
        "epoch_osculation": "2459000.5",
        "eccentricity": ".569757155725139",
        "semi_major_axis": "2.441913165162072",
        "inclination": "18.7048618535325",
        "ascending_node_longitude": "39.58189349371828",
        "orbital_period": "1393.77846911757",
        "perihelion_distance": "1.050615665651558",
        "perihelion_argument": "180.5226415075782",
        "aphelion_distance": "3.833210664672585",
        "perihelion_time": "2459200.059009771890",
        "mean_anomaly": "308.4557660276064",
        "mean_motion": ".2582906882095283",
        "equinox": "J2000",
        "orbit_class": {
            "orbit_class_type": "AMO",
            "orbit_class_description": "Near-Earth asteroid orbits similar to that of 1221 Amor",
            "orbit_class_range": "1.017 AU < q (perihelion) < 1.3 AU"
        }
    },
    "is_sentry_object": false
}